STARLINK-2450           
1 48113U 21027X   24223.06876287  .00000006  00000+0  19292-4 0  9998
2 48113  53.0542 240.1660 0001161 101.4450 258.6670 15.06412469185108
STARLINK-2452           
1 48115U 21027Z   24223.19133008  .00000627  00000+0  60945-4 0  9991
2 48115  53.0539 229.6291 0001225 100.1130 259.9997 15.06402857185263
STARLINK-2454           
1 48116U 21027AA  24223.19777072  .00000927  00000+0  81067-4 0  9998
2 48116  53.0547 239.5929 0001161  70.0975 290.0139 15.06412187185128
STARLINK-2455           
1 48117U 21027AB  24223.16917800  .00000304  00000+0  39298-4 0  9999
2 48117  53.0533 219.7057 0001113  94.9448 265.1668 15.06415589185403
STARLINK-2458           
1 48118U 21027AC  24223.18118611  .00001612  00000+0  12707-3 0  9993
2 48118  53.0542 219.6634 0001376  86.8875 273.2272 15.06405400185401
STARLINK-2459           
1 48119U 21027AD  24223.17655503  .00002536  00000+0  18905-3 0  9991
2 48119  53.0530 219.6737 0001388  97.5450 262.5697 15.06408371185406
STARLINK-2460           
1 48120U 21027AE  24223.05033724  .00001492  00000+0  11904-3 0  9997
2 48120  53.0536 240.2510 0001241  88.0187 272.0945 15.06405081185107
STARLINK-2462           
1 48121U 21027AF  24223.28715709  .00001669  00000+0  13089-3 0  9995
2 48121  53.0534 229.1915 0001351  92.9149 267.1995 15.06406360185285
STARLINK-2463           
1 48122U 21027AG  24223.15308238  .00003234  00000+0  23586-3 0  9990
2 48122  53.0538 224.7611 0001546  92.7045 267.4121 15.06406794185334
STARLINK-2464           
1 48123U 21027AH  24223.16276493  .00003034  00000+0  22245-3 0  9998
2 48123  53.0521 219.7455 0001490 100.3966 259.7191 15.06403790185393
STARLINK-2465           
1 48124U 21027AJ  24222.76376239 -.00003140  00000+0 -19206-3 0  9996
2 48124  53.0529 231.5354 0001431  93.9370 266.1783 15.06381988185598
STARLINK-2466           
1 48125U 21027AK  24223.17569958 -.00000125  00000+0  10477-4 0  9996
2 48125  53.0538 239.9299 0001270  85.7477 274.3657 15.06397608185123
STARLINK-2467           
1 48126U 21027AL  24222.99689368 -.00000374  00000+0 -62031-5 0  9995
2 48126  53.0550 220.4913 0001411  96.9981 263.1168 15.06411341185378
STARLINK-2468           
1 48127U 21027AM  24223.31940560  .00001687  00000+0  13206-3 0  9991
2 48127  53.0537 239.0419 0001366  89.0511 271.0635 15.06411035185144
STARLINK-2469           
1 48128U 21027AN  24223.16736928  .00000858  00000+0  76488-4 0  9997
2 48128  53.0546 169.8127 0001893  69.2511 290.8681 15.06417457186107
STARLINK-2471           
1 48129U 21027AP  24223.31203434  .00003351  00000+0  24365-3 0  9993
2 48129  53.0533 239.0754 0001372  90.4594 269.6552 15.06410616185143
STARLINK-2472           
1 48130U 21027AQ  24223.08864161 -.00002192  00000+0 -12827-3 0  9993
2 48130  53.0541 245.6262 0001269 100.3810 259.7322 15.06415250185030
STARLINK-2473           
1 48131U 21027AR  24223.18855391  .00001231  00000+0  10151-3 0  9999
2 48131  53.0545 219.6277 0001457  88.8249 271.2907 15.06410734185408
STARLINK-2474           
1 48132U 21027AS  24223.43369229  .00012772  00000+0  87430-3 0  9994
2 48132  53.0530 238.5330 0001195 104.8038 255.3083 15.06420097185161
STARLINK-2475           
1 48133U 21027AT  24223.42999875  .00007069  00000+0  49284-3 0  9998
2 48133  53.0526 238.5489 0001394  89.8294 270.2855 15.06412961185163
STARLINK-2476           
1 48134U 21027AU  24223.41525277 -.00000923  00000+0 -43070-4 0  9991
2 48134  53.0547 238.6103 0001389  90.9312 269.1836 15.06387858185161
STARLINK-2478           
1 48135U 21027AV  24223.35029954  .00008936  00000+0  61747-3 0  9996
2 48135  53.0535 244.0692 0001296  75.5564 284.5568 15.06433131185077
STARLINK-2479           
1 48136U 21027AW  24223.09094124  .00002234  00000+0  16879-3 0  9990
2 48136  53.0546 240.5718 0001258  80.9680 279.1452 15.06407439185105
STARLINK-2480           
1 48137U 21027AX  24223.13326602  .00001440  00000+0  11550-3 0  9994
2 48137  53.0539 219.8516 0001318  89.2223 270.8917 15.06405307185392
STARLINK-2481           
1 48138U 21027AY  24223.42631410  .00001188  00000+0  98663-4 0  9993
2 48138  53.0539 238.5657 0001260  89.5171 270.5962 15.06397376185166
STARLINK-2482           
1 48139U 21027AZ  24223.15169712  .00001019  00000+0  87246-4 0  9993
2 48139  53.0551 219.7980 0001367  99.8210 260.2933 15.06406020185405
STARLINK-2483           
1 48140U 21027BA  24223.30474647 -.00000700  00000+0 -28097-4 0  9995
2 48140  53.0545 239.6624 0001550  78.3258 281.7905 15.06387516185139
STARLINK-2484           
1 48141U 21027BB  24223.07615125  .00001936  00000+0  14881-3 0  9993
2 48141  53.0546 240.1346 0001126  87.1781 272.9337 15.06394140185117
STARLINK-2485           
1 48142U 21027BC  24223.14800968  .00002057  00000+0  15693-3 0  9990
2 48142  53.0541 219.8134 0001417  89.4026 270.7125 15.06411399185400
STARLINK-2486           
1 48143U 21027BD  24223.13927762  .00004298  00000+0  30716-3 0  9994
2 48143  53.0537 174.9524 0001422  91.2248 268.8904 15.06411691186020
STARLINK-2487           
1 48144U 21027BE  24222.69096390  .00002787  00000+0  20585-3 0  9993
2 48144  53.0536 221.8632 0001180  92.6685 267.4439 15.06410095185724
STARLINK-2488           
1 48145U 21027BF  24223.15907062  .00001334  00000+0  10839-3 0  9991
2 48145  53.0531 219.7636 0001287  97.1851 262.9284 15.06405839185406
STARLINK-2490           
1 48147U 21027BH  24223.13954057  .01499526  14568-2  19649-2 0  9996
2 48147  53.0385 176.5380 0005265 114.3713 342.5599 16.06609317186009
STARLINK-2491           
1 48148U 21027BJ  24222.79232290  .00002460  00000+0  18397-3 0  9995
2 48148  53.0547 241.4106 0001308  91.7769 268.3370 15.06403549185459
STARLINK-2492           
1 48149U 21027BK  24223.13695609  .00001622  00000+0  12775-3 0  9995
2 48149  53.0538 219.8624 0001468  97.9705 262.1450 15.06401244185393
STARLINK-2493           
1 48150U 21027BL  24223.14064374 -.00000357  00000+0 -51011-5 0  9991
2 48150  53.0544 219.8501 0001311  66.4938 293.6189 15.06410605185403
STARLINK-2503           
1 48151U 21027BM  24223.21066366  .00002563  00000+0  19082-3 0  9992
2 48151  53.0540 219.5340 0001479  92.1632 267.9527 15.06415089185412
STARLINK-2567           
1 48276U 21036A   24222.98628894  .00020841  00000+0  14123-2 0  9992
2 48276  53.0537 115.5436 0001402 125.2561 234.8560 15.06442258182462
STARLINK-2569           
1 48277U 21036B   24222.85500093  .00014311  00000+0  97738-3 0  9998
2 48277  53.0528  81.1254 0001104  83.5422 276.5692 15.06412790182939
STARLINK-2543           
1 48278U 21036C   24222.89231981  .00022339  00000+0  15122-2 0  9995
2 48278  53.0540  96.0397 0001196  76.2528 283.8594 15.06439796182144
STARLINK-2580           
1 48279U 21036D   24223.01762815  .00021227  00000+0  14379-2 0  9994
2 48279  53.0545  95.4007 0001370  78.3848 281.7294 15.06445386182745
STARLINK-2565           
1 48280U 21036E   24223.21020835  .00006527  00000+0  45636-3 0  9994
2 48280  53.0540 164.5317 0001528  85.0659 275.0504 15.06426422181798
STARLINK-2520           
1 48281U 21036F   24223.02407137  .00030231  00000+0  20374-2 0  9998
2 48281  53.0530 145.3726 0001401 106.8839 253.2303 15.06442188182042
STARLINK-2558           
1 48282U 21036G   24223.18027134  .00021894  00000+0  14829-2 0  9994
2 48282  53.0526 149.6670 0001281  92.1834 267.9301 15.06431291182000
STARLINK-2516           
1 48283U 21036H   24223.17657408  .00012993  00000+0  88883-3 0  9999
2 48283  53.0537 149.6836 0001406  97.2269 262.8879 15.06428732182004
STARLINK-2564           
1 48284U 21036J   24223.10654292  .00026598  00000+0  17958-2 0  9991
2 48284  53.0531 150.0026 0001329 104.0174 256.0963 15.06441717181985
STARLINK-2547           
1 48286U 21036L   24223.19134871  .00024077  00000+0  16278-2 0  9992
2 48286  53.0534 149.8886 0001355  99.2403 260.8739 15.06444208181992
STARLINK-2566           
1 48287U 21036M   24223.02913712  .00018796  00000+0  12761-2 0  9998
2 48287  53.0529 150.3502 0001365  83.3552 276.7592 15.06436364181974
STARLINK-2562           
1 48288U 21036N   24223.16552041  .00023732  00000+0  16044-2 0  9992
2 48288  53.0541 149.8160 0001263  98.9409 261.1723 15.06454208181995
STARLINK-2545           
1 48289U 21036P   24223.08811210  .00027534  00000+0  18575-2 0  9995
2 48289  53.0534 150.0849 0001458  95.3998 264.7157 15.06452153181982
STARLINK-2540           
1 48290U 21036Q   24223.08443116  .00025985  00000+0  17547-2 0  9999
2 48290  53.0548 150.1036 0001818  86.7100 273.4097 15.06447623181983
STARLINK-2555           
1 48291U 21036R   24223.08073719  .00028472  00000+0  19198-2 0  9996
2 48291  53.0532 150.1178 0001365 105.1709 254.9431 15.06454137181986
STARLINK-2542           
1 48292U 21036S   24223.09184441 -.00004826  00000+0 -30541-3 0  9998
2 48292  53.0552 150.2330 0001539  85.1483 274.9682 15.06384844181986
STARLINK-2550           
1 48293U 21036T   24223.07336503  .00034079  00000+0  22921-2 0  9998
2 48293  53.0532 150.1513 0001331 105.6337 254.4799 15.06458252181980
STARLINK-2533           
1 48294U 21036U   24223.20236865  .00025371  00000+0  17134-2 0  9999
2 48294  53.0526 149.5704 0001405 100.2958 259.8189 15.06457174182008
STARLINK-2535           
1 48295U 21036V   24223.06601042  .00015873  00000+0  10819-2 0  9996
2 48295  53.0542 150.1815 0001727  98.6285 261.4900 15.06405936181983
STARLINK-2546           
1 48296U 21036W   24223.06231013  .00025063  00000+0  16934-2 0  9990
2 48296  53.0525 150.2006 0001335  94.7056 265.4086 15.06445816181986
STARLINK-2559           
1 48298U 21036Y   24223.18763358  .00021035  00000+0  14248-2 0  9998
2 48298  53.0531 149.6332 0001374 107.9625 252.1514 15.06453639182006
STARLINK-2557           
1 48299U 21036Z   24223.05128340  .00033370  00000+0  22470-2 0  9992
2 48299  53.0537 150.2474 0001220  88.8050 271.3079 15.06425805181986
